{
  "type": "FeatureCollection",
  "features": [
    {
      "type": "Feature",
      "properties": {
        "norad_id": 43707,
        "name": "BEIDOU-3 M18 (C37)",
        "group": "beidou",
        "lat": 3.786169632961104,
        "lon": 6.013031933228987,
        "alt_km": 21545.978817005656,
        "timestamp": "2025-12-08T19:31:49.075628+00:00",
        "meta_object_name": "BEIDOU-3 M18 (C37)",
        "meta_object_id": "2018-093B",
        "meta_epoch": "2025-12-08T00:22:06.139776",
        "meta_mean_motion": 1.86226539,
        "meta_eccentricity": 0.00063651,
        "meta_inclination": 54.1733,
        "meta_ra_of_asc_node": 188.774,
        "meta_arg_of_pericenter": 352.0648,
        "meta_mean_anomaly": 7.9918,
        "meta_ephemeris_type": 0,
        "meta_classification_type": "U",
        "meta_norad_cat_id": 43707,
        "meta_element_set_no": 999,
        "meta_rev_at_epoch": 4797,
        "meta_bstar": 0,
        "meta_mean_motion_dot": 5.3e-07,
        "meta_mean_motion_ddot": 0,
        "tle_line1": "1 43707U 18093B   25342.01534884  .00000053  00000+0  00000+0 0  9997",
        "tle_line2": "2 43707  54.1733 188.7740 0006365 352.0648   7.9918  1.86226539 47972"
      },
      "geometry": {
        "type": "Point",
        "coordinates": [
          6.013031933228987,
          3.786169632961104
        ]
      }
    },
    {
      "type": "Feature",
      "properties": {
        "norad_id": 44204,
        "name": "BEIDOU-3 IGSO-1 (C38)",
        "group": "beidou",
        "lat": 57.99939909491474,
        "lon": 119.03734155572883,
        "alt_km": 35870.74802840104,
        "timestamp": "2025-12-08T19:31:49.075638+00:00",
        "meta_object_name": "BEIDOU-3 IGSO-1 (C38)",
        "meta_object_id": "2019-023A",
        "meta_epoch": "2025-11-19T14:15:02.708640",
        "meta_mean_motion": 1.00252177,
        "meta_eccentricity": 0.0026966,
        "meta_inclination": 58.4003,
        "meta_ra_of_asc_node": 39.8168,
        "meta_arg_of_pericenter": 221.2202,
        "meta_mean_anomaly": 126.9723,
        "meta_ephemeris_type": 0,
        "meta_classification_type": "U",
        "meta_norad_cat_id": 44204,
        "meta_element_set_no": 999,
        "meta_rev_at_epoch": 510,
        "meta_bstar": 0,
        "meta_mean_motion_dot": -2.26e-06,
        "meta_mean_motion_ddot": 0,
        "tle_line1": "1 44204U 19023A   25323.59378135 -.00000226  00000+0  00000+0 0  9994",
        "tle_line2": "2 44204  58.4003  39.8168 0026966 221.2202 126.9723  1.00252177  5102"
      },
      "geometry": {
        "type": "Point",
        "coordinates": [
          119.03734155572883,
          57.99939909491474
        ]
      }
    },
    {
      "type": "Feature",
      "properties": {
        "norad_id": 44231,
        "name": "BEIDOU-2 G8 (C01)",
        "group": "beidou",
        "lat": 1.633210666879791,
        "lon": 155.2947817785175,
        "alt_km": 35822.70918955282,
        "timestamp": "2025-12-08T19:31:49.075651+00:00",
        "meta_object_name": "BEIDOU-2 G8 (C01)",
        "meta_object_id": "2019-027A",
        "meta_epoch": "2025-12-08T07:26:35.147328",
        "meta_mean_motion": 1.00269007,
        "meta_eccentricity": 0.00086087,
        "meta_inclination": 1.6505,
        "meta_ra_of_asc_node": 74.7218,
        "meta_arg_of_pericenter": 255.48,
        "meta_mean_anomaly": 3.3084,
        "meta_ephemeris_type": 0,
        "meta_classification_type": "U",
        "meta_norad_cat_id": 44231,
        "meta_element_set_no": 999,
        "meta_rev_at_epoch": 2416,
        "meta_bstar": 0,
        "meta_mean_motion_dot": -2.45e-06,
        "meta_mean_motion_ddot": 0,
        "tle_line1": "1 44231U 19027A   25342.31012902 -.00000245  00000+0  00000+0 0  9997",
        "tle_line2": "2 44231   1.6505  74.7218 0008608 255.4800   3.3084  1.00269007 24164"
      },
      "geometry": {
        "type": "Point",
        "coordinates": [
          155.2947817785175,
          1.633210666879791
        ]
      }
    },
    {
      "type": "Feature",
      "properties": {
        "norad_id": 44337,
        "name": "BEIDOU-3 IGSO-2 (C39)",
        "group": "beidou",
        "lat": -24.13533574761554,
        "lon": 142.35969921408295,
        "alt_km": 35885.77376779809,
        "timestamp": "2025-12-08T19:31:49.075661+00:00",
        "meta_object_name": "BEIDOU-3 IGSO-2 (C39)",
        "meta_object_id": "2019-035A",
        "meta_epoch": "2025-12-08T04:07:53.847264",
        "meta_mean_motion": 1.00272471,
        "meta_eccentricity": 0.00374795,
        "meta_inclination": 55.2246,
        "meta_ra_of_asc_node": 160.5411,
        "meta_arg_of_pericenter": 202.4386,
        "meta_mean_anomaly": 255.7158,
        "meta_ephemeris_type": 0,
        "meta_classification_type": "U",
        "meta_norad_cat_id": 44337,
        "meta_element_set_no": 999,
        "meta_rev_at_epoch": 2375,
        "meta_bstar": 0,
        "meta_mean_motion_dot": -7.9e-07,
        "meta_mean_motion_ddot": 0,
        "tle_line1": "1 44337U 19035A   25342.17215101 -.00000079  00000+0  00000+0 0  9998",
        "tle_line2": "2 44337  55.2246 160.5411 0037479 202.4386 255.7158  1.00272471 23754"
      },
      "geometry": {
        "type": "Point",
        "coordinates": [
          142.35969921408295,
          -24.13533574761554
        ]
      }
    },
    {
      "type": "Feature",
      "properties": {
        "norad_id": 44542,
        "name": "BEIDOU-3 M24 (C46)",
        "group": "beidou",
        "lat": 39.954182410004215,
        "lon": -27.736203913813135,
        "alt_km": 21529.43840567721,
        "timestamp": "2025-12-08T19:31:49.075671+00:00",
        "meta_object_name": "BEIDOU-3 M24 (C46)",
        "meta_object_id": "2019-061A",
        "meta_epoch": "2025-12-07T13:11:18.062304",
        "meta_mean_motion": 1.86229273,
        "meta_eccentricity": 0.00095737,
        "meta_inclination": 54.4002,
        "meta_ra_of_asc_node": 189.1913,
        "meta_arg_of_pericenter": 24.494,
        "meta_mean_anomaly": 335.622,
        "meta_ephemeris_type": 0,
        "meta_classification_type": "U",
        "meta_norad_cat_id": 44542,
        "meta_element_set_no": 999,
        "meta_rev_at_epoch": 4222,
        "meta_bstar": 0,
        "meta_mean_motion_dot": 5.8e-07,
        "meta_mean_motion_ddot": 0,
        "tle_line1": "1 44542U 19061A   25341.54951461  .00000058  00000+0  00000+0 0  9997",
        "tle_line2": "2 44542  54.4002 189.1913 0009573  24.4940 335.6220  1.86229273 42226"
      },
      "geometry": {
        "type": "Point",
        "coordinates": [
          -27.736203913813135,
          39.954182410004215
        ]
      }
    },
    {
      "type": "Feature",
      "properties": {
        "norad_id": 44543,
        "name": "BEIDOU-3 M23 (C45)",
        "group": "beidou",
        "lat": 31.8481290407449,
        "lon": -144.44269801037197,
        "alt_km": 21508.285990030174,
        "timestamp": "2025-12-08T19:31:49.075681+00:00",
        "meta_object_name": "BEIDOU-3 M23 (C45)",
        "meta_object_id": "2019-061B",
        "meta_epoch": "2025-12-08T05:13:38.206848",
        "meta_mean_motion": 1.86227543,
        "meta_eccentricity": 0.00060833,
        "meta_inclination": 54.3988,
        "meta_ra_of_asc_node": 189.137,
        "meta_arg_of_pericenter": 22.991,
        "meta_mean_anomaly": 337.9683,
        "meta_ephemeris_type": 0,
        "meta_classification_type": "U",
        "meta_norad_cat_id": 44543,
        "meta_element_set_no": 999,
        "meta_rev_at_epoch": 4224,
        "meta_bstar": 0,
        "meta_mean_motion_dot": 5.2e-07,
        "meta_mean_motion_ddot": 0,
        "tle_line1": "1 44543U 19061B   25342.21780332  .00000052  00000+0  00000+0 0  9994",
        "tle_line2": "2 44543  54.3988 189.1370 0006083  22.9910 337.9683  1.86227543 42247"
      },
      "geometry": {
        "type": "Point",
        "coordinates": [
          -144.44269801037197,
          31.8481290407449
        ]
      }
    },
    {
      "type": "Feature",
      "properties": {
        "norad_id": 44709,
        "name": "BEIDOU-3 IGSO-3 (C40)",
        "group": "beidou",
        "lat": -17.636579039339566,
        "lon": 115.70841039079697,
        "alt_km": 35611.20053568106,
        "timestamp": "2025-12-08T19:31:49.075692+00:00",
        "meta_object_name": "BEIDOU-3 IGSO-3 (C40)",
        "meta_object_id": "2019-073A",
        "meta_epoch": "2025-11-20T07:11:22.740000",
        "meta_mean_motion": 1.00250097,
        "meta_eccentricity": 0.0044538,
        "meta_inclination": 55.163,
        "meta_ra_of_asc_node": 283.159,
        "meta_arg_of_pericenter": 191.5856,
        "meta_mean_anomaly": 168.2409,
        "meta_ephemeris_type": 0,
        "meta_classification_type": "U",
        "meta_norad_cat_id": 44709,
        "meta_element_set_no": 999,
        "meta_rev_at_epoch": 2236,
        "meta_bstar": 0,
        "meta_mean_motion_dot": -2.06e-06,
        "meta_mean_motion_ddot": 0,
        "tle_line1": "1 44709U 19073A   25324.29956875 -.00000206  00000+0  00000+0 0  9998",
        "tle_line2": "2 44709  55.1630 283.1590 0044538 191.5856 168.2409  1.00250097 22360"
      },
      "geometry": {
        "type": "Point",
        "coordinates": [
          115.70841039079697,
          -17.636579039339566
        ]
      }
    }
  ]
}